{
  "norad_id": 47672,
  "name": "STARLINK-2065",
  "history": [
    {
      "epoch": "2026-03-28T17:13:26.910912Z",
      "apogee_km": 351.2755530444001,
      "perigee_km": 346.6540341122118,
      "latitude_deg": 2.2913793423288044e-05,
      "longitude_deg": -169.51861795215737,
      "height_km": 350.32159425894605,
      "semi_major_axis_km": 6727.101793578306,
      "eccentricity": 0.0003435,
      "inclination_deg": 53.1501,
      "raan_deg": 274.9776,
      "arg_perigee_deg": 101.1331,
      "mean_anomaly_deg": 259.0075,
      "mean_motion_rev_day": 15.73478318
    },
    {
      "epoch": "2026-03-30T00:00:01.999296Z",
      "apogee_km": 349.7096503272551,
      "perigee_km": 345.78173483478895,
      "latitude_deg": 48.58282429040689,
      "longitude_deg": 138.86781043667403,
      "height_km": 351.5057730900392,
      "semi_major_axis_km": 6725.882692581022,
      "eccentricity": 0.000292,
      "inclination_deg": 53.1484,
      "raan_deg": 268.6179,
      "arg_perigee_deg": 98.201,
      "mean_anomaly_deg": 331.0436,
      "mean_motion_rev_day": 15.73906139
    },
    {
      "epoch": "2026-03-30T00:00:02.000160Z",
      "apogee_km": 349.70978484491025,
      "perigee_km": 345.7816003171347,
      "latitude_deg": 48.58282381786076,
      "longitude_deg": 138.86780531251702,
      "height_km": 351.50565530167376,
      "semi_major_axis_km": 6725.882692581022,
      "eccentricity": 0.00029202,
      "inclination_deg": 53.1484,
      "raan_deg": 268.6179,
      "arg_perigee_deg": 98.201,
      "mean_anomaly_deg": 331.0436,
      "mean_motion_rev_day": 15.73906139
    },
    {
      "epoch": "2026-03-30T14:00:03.000384Z",
      "apogee_km": 349.04688462797276,
      "perigee_km": 345.29886943350357,
      "latitude_deg": 33.439689724234796,
      "longitude_deg": 18.255323106135812,
      "height_km": 347.94531164480946,
      "semi_major_axis_km": 6725.309877030738,
      "eccentricity": 0.00027865,
      "inclination_deg": 53.1505,
      "raan_deg": 265.7215,
      "arg_perigee_deg": 100.5205,
      "mean_anomaly_deg": 36.095,
      "mean_motion_rev_day": 15.74107225
    },
    {
      "epoch": "2026-03-30T22:00:00.999936Z",
      "apogee_km": 348.6737665666378,
      "perigee_km": 345.18076818616373,
      "latitude_deg": -35.756326706811016,
      "longitude_deg": -41.78073514227395,
      "height_km": 359.51938483162553,
      "semi_major_axis_km": 6725.0642673764005,
      "eccentricity": 0.0002597,
      "inclination_deg": 53.1488,
      "raan_deg": 264.0689,
      "arg_perigee_deg": 94.6408,
      "mean_anomaly_deg": 131.9297,
      "mean_motion_rev_day": 15.74193459
    },
    {
      "epoch": "2026-03-31T20:00:01.999008Z",
      "apogee_km": 347.54806135508807,
      "perigee_km": 344.4993268963717,
      "latitude_deg": 19.77126260592898,
      "longitude_deg": 145.8435309579449,
      "height_km": 345.89750273836955,
      "semi_major_axis_km": 6724.16069412573,
      "eccentricity": 0.0002267,
      "inclination_deg": 53.1485,
      "raan_deg": 259.5178,
      "arg_perigee_deg": 92.3559,
      "mean_anomaly_deg": 292.6209,
      "mean_motion_rev_day": 15.74510773
    },
    {
      "epoch": "2026-04-01T20:00:01.999008Z",
      "apogee_km": 346.5526614631199,
      "perigee_km": 343.70871923010236,
      "latitude_deg": -45.68962011996758,
      "longitude_deg": 74.58274931597894,
      "height_km": 361.8476867259205,
      "semi_major_axis_km": 6723.267690346611,
      "eccentricity": 0.0002115,
      "inclination_deg": 53.1489,
      "raan_deg": 254.5505,
      "arg_perigee_deg": 86.203,
      "mean_anomaly_deg": 210.7723,
      "mean_motion_rev_day": 15.7482448
    },
    {
      "epoch": "2026-04-02T20:00:01.999008Z",
      "apogee_km": 345.4160900768984,
      "perigee_km": 342.8159226140442,
      "latitude_deg": -23.96339483500426,
      "longitude_deg": -42.25881966901413,
      "height_km": 351.9607541673108,
      "semi_major_axis_km": 6722.2530063454715,
      "eccentricity": 0.0001934,
      "inclination_deg": 53.1489,
      "raan_deg": 249.5813,
      "arg_perigee_deg": 74.14,
      "mean_anomaly_deg": 136.0844,
      "mean_motion_rev_day": 15.75181059
    },
    {
      "epoch": "2026-04-02T22:00:01.999584Z",
      "apogee_km": 345.25711635680636,
      "perigee_km": 342.691420927792,
      "latitude_deg": -28.9742042849104,
      "longitude_deg": 63.526878828084726,
      "height_km": 353.14566914995424,
      "semi_major_axis_km": 6722.111268642299,
      "eccentricity": 0.00019084,
      "inclination_deg": 53.1485,
      "raan_deg": 249.1671,
      "arg_perigee_deg": 72.2571,
      "mean_anomaly_deg": 250.7939,
      "mean_motion_rev_day": 15.75230879
    },
    {
      "epoch": "2026-04-03T20:00:01.999008Z",
      "apogee_km": 344.247152562305,
      "perigee_km": 341.71597931037377,
      "latitude_deg": 41.085394149074034,
      "longitude_deg": -108.08531094365411,
      "height_km": 346.10589743151445,
      "semi_major_axis_km": 6721.118565936339,
      "eccentricity": 0.0001883,
      "inclination_deg": 53.1509,
      "raan_deg": 244.6086,
      "arg_perigee_deg": 67.8309,
      "mean_anomaly_deg": 57.1621,
      "mean_motion_rev_day": 15.75579882
    },
    {
      "epoch": "2026-04-04T06:00:02.000160Z",
      "apogee_km": 343.60028942607187,
      "perigee_km": 341.0974460792031,
      "latitude_deg": -23.84902941223345,
      "longitude_deg": -59.28383082268223,
      "height_km": 349.4295256519799,
      "semi_major_axis_km": 6720.485867752637,
      "eccentricity": 0.00018621,
      "inclination_deg": 53.1487,
      "raan_deg": 242.5338,
      "arg_perigee_deg": 69.7099,
      "mean_anomaly_deg": 260.2223,
      "mean_motion_rev_day": 15.75802386
    },
    {
      "epoch": "2026-04-05T12:00:02.999808Z",
      "apogee_km": 342.20886267526475,
      "perigee_km": 339.8163078909365,
      "latitude_deg": -35.50548677979246,
      "longitude_deg": 74.61620087095997,
      "height_km": 353.50777815969235,
      "semi_major_axis_km": 6719.1495852831,
      "eccentricity": 0.00017804,
      "inclination_deg": 53.1495,
      "raan_deg": 236.3132,
      "arg_perigee_deg": 57.771,
      "mean_anomaly_deg": 168.4461,
      "mean_motion_rev_day": 15.76272495
    },
    {
      "epoch": "2026-04-05T20:00:03.000384Z",
      "apogee_km": 342.15859250188987,
      "perigee_km": 339.43339327997364,
      "latitude_deg": -31.978785529833655,
      "longitude_deg": 72.77910267621404,
      "height_km": 350.7072724509256,
      "semi_major_axis_km": 6718.932992890931,
      "eccentricity": 0.0002028,
      "inclination_deg": 53.1492,
      "raan_deg": 234.6553,
      "arg_perigee_deg": 48.7563,
      "mean_anomaly_deg": 270.1257,
      "mean_motion_rev_day": 15.76348715
    },
    {
      "epoch": "2026-04-06T06:00:02.000160Z",
      "apogee_km": 341.59688051068315,
      "perigee_km": 339.2601634221428,
      "latitude_deg": 12.088918958349499,
      "longitude_deg": 118.8409447895716,
      "height_km": 341.03104836738925,
      "semi_major_axis_km": 6718.565521966412,
      "eccentricity": 0.0001739,
      "inclination_deg": 53.1488,
      "raan_deg": 232.5782,
      "arg_perigee_deg": 51.9556,
      "mean_anomaly_deg": 112.8478,
      "mean_motion_rev_day": 15.76478044
    },
    {
      "epoch": "2026-04-07T14:00:01.999872Z",
      "apogee_km": 340.63085464925916,
      "perigee_km": 337.69512586151814,
      "latitude_deg": 2.063539294858298,
      "longitude_deg": -1.4678416974198147,
      "height_km": 340.8948423786312,
      "semi_major_axis_km": 6717.299990255388,
      "eccentricity": 0.00021852,
      "inclination_deg": 53.149,
      "raan_deg": 225.9374,
      "arg_perigee_deg": 41.123,
      "mean_anomaly_deg": 136.1947,
      "mean_motion_rev_day": 15.76923575
    },
    {
      "epoch": "2026-04-07T20:00:00.999360Z",
      "apogee_km": 340.4891737764292,
      "perigee_km": 337.36573880425385,
      "latitude_deg": 17.97987941443326,
      "longitude_deg": -105.41313613821681,
      "height_km": 340.06091387507945,
      "semi_major_axis_km": 6717.064456290341,
      "eccentricity": 0.0002325,
      "inclination_deg": 53.1486,
      "raan_deg": 224.6923,
      "arg_perigee_deg": 36.632,
      "mean_anomaly_deg": 120.6946,
      "mean_motion_rev_day": 15.77006518
    },
    {
      "epoch": "2026-04-08T16:00:01.999584Z",
      "apogee_km": 339.8555940112483,
      "perigee_km": 336.65174133495475,
      "latitude_deg": -24.86618650909442,
      "longitude_deg": -16.18890684379445,
      "height_km": 347.0749278454673,
      "semi_major_axis_km": 6716.390667673101,
      "eccentricity": 0.00023851,
      "inclination_deg": 53.1486,
      "raan_deg": 220.5383,
      "arg_perigee_deg": 37.7817,
      "mean_anomaly_deg": 173.6502,
      "mean_motion_rev_day": 15.77243832
    },
    {
      "epoch": "2026-04-09T20:00:01.999008Z",
      "apogee_km": 339.2038457279623,
      "perigee_km": 335.50629579380166,
      "latitude_deg": 0.16334167900895757,
      "longitude_deg": 76.75742950076312,
      "height_km": 336.6725812068877,
      "semi_major_axis_km": 6715.492070760882,
      "eccentricity": 0.0002753,
      "inclination_deg": 53.1482,
      "raan_deg": 214.7199,
      "arg_perigee_deg": 31.6982,
      "mean_anomaly_deg": 328.6232,
      "mean_motion_rev_day": 15.77560418
    },
    {
      "epoch": "2026-04-10T12:00:02.000160Z",
      "apogee_km": 338.4916184598351,
      "perigee_km": 334.92737793859123,
      "latitude_deg": -7.2539502479604305,
      "longitude_deg": 18.095478164709682,
      "height_km": 340.4841965920406,
      "semi_major_axis_km": 6714.846498199213,
      "eccentricity": 0.0002654,
      "inclination_deg": 53.1485,
      "raan_deg": 211.3933,
      "arg_perigee_deg": 32.5515,
      "mean_anomaly_deg": 156.3582,
      "mean_motion_rev_day": 15.77787926
    }
  ]
}